$$SOE
2456307.270833333 = A.D. 2013-Jan-14 18:30:00.0000 TDB 
 X =-6.140690003769914E+07 Y = 1.224351611168488E+08 Z = 5.307165319718484E+07
 VX=-2.482509680114934E+01 VY=-1.757082892831369E+01 VZ=-1.380967143058426E+00
 LT= 4.899848379960122E+02 RG= 1.468937589655563E+08 RR=-4.766337571615726E+00
2456307.274305556 = A.D. 2013-Jan-14 18:35:00.0000 TDB 
 X =-6.141402126031700E+07 Y = 1.224300655389149E+08 Z = 5.307120245191441E+07
 VX=-2.271849612149721E+01 VY=-1.630060946123519E+01 VZ=-1.686767149963630E+00
 LT= 4.899800586736424E+02 RG= 1.468923261607555E+08 RR=-4.697108826536625E+00
2456307.277777778 = A.D. 2013-Jan-14 18:40:00.0000 TDB 
 X =-6.142058301552092E+07 Y = 1.224254324156155E+08 Z = 5.307060574872531E+07
 VX=-2.112899207305301E+01 VY=-1.451553911895483E+01 VZ=-2.345286481027814E+00
 LT= 4.899756104805235E+02 RG= 1.468909926260067E+08 RR=-4.110408032072454E+00
2456307.281250000 = A.D. 2013-Jan-14 18:45:00.0000 TDB 
 X =-6.142676762533116E+07 Y = 1.224213887419251E+08 Z = 5.306976694489668E+07
 VX=-2.022689961276066E+01 VY=-1.240634520954388E+01 VZ=-3.286224849134811E+00
 LT= 4.899719845385108E+02 RG= 1.468899055959381E+08 RR=-3.068475893654046E+00
2456307.284722222 = A.D. 2013-Jan-14 18:50:00.0000 TDB 
 X =-6.143279783270048E+07 Y = 1.224179985114601E+08 Z = 5.306861577481707E+07
 VX=-2.010896021428695E+01 VY=-1.019849152556067E+01 VZ=-4.408947753196605E+00
 LT= 4.899695845157029E+02 RG= 1.468891860872013E+08 RR=-1.682261259614139E+00
2456307.288194444 = A.D. 2013-Jan-14 18:55:00.0000 TDB 
 X =-6.143891297970551E+07 Y = 1.224152558641073E+08 Z = 5.306711539005999E+07
 VX=-2.078812730287695E+01 VY=-8.128025600112101E+00 VZ=-5.593321960899689E+00
 LT= 4.899686834719891E+02 RG= 1.468889159610916E+08 RR=-9.950274976453860E-02
2456307.291666667 = A.D. 2013-Jan-14 19:00:00.0000 TDB 
 X =-6.144534344505739E+07 Y = 1.224130856801841E+08 Z = 5.306526632145558E+07
 VX=-2.219221557606227E+01 VY=-6.416510865168489E+00 VZ=-6.712512937705669E+00
 LT= 4.899693946407261E+02 RG= 1.468891291641153E+08 RR= 1.510949980503041E+00
$$EOE
